STARLINK-36576          
1 67534U 26014C   26049.25002315 -.00089909  00000+0 -60716-3 0  9996
2 67534  97.2835 293.2298 0001461  96.1195 257.7152 15.75231809  5565
STARLINK-36574          
1 67535U 26014D   26049.24022684 -.00810283  00000+0 -50896-2 0  9991
2 67535  97.2827 293.2465 0001314  35.9834 324.1521 15.78774987  5517
STARLINK-36572          
1 67536U 26014E   26049.20983715  .00213163  00000+0  13946-2 0  9996
2 67536  97.2827 293.1322 0001998 117.4322 242.7147 15.75189833  5500
STARLINK-36561          
1 67537U 26014F   26049.21583732  .00313560  00000+0  20255-2 0  9996
2 67537  97.2847 293.1224 0002067 107.4844 252.6647 15.75205254  5501
STARLINK-36397          
1 67538U 26014G   26049.21972059  .00199617  00000+0  13084-2 0  9998
2 67538  97.2847 293.1178 0002086  74.5418 285.6078 15.75185212  5507
STARLINK-36573          
1 67539U 26014H   26049.25002315 -.00092655  00000+0 -62753-3 0  9996
2 67539  97.2840 293.2466 0001550  96.6004 301.3844 15.75172437  5561
STARLINK-36585          
1 67540U 26014J   26049.21160335  .00235261  00000+0  15345-2 0  9995
2 67540  97.2840 293.1265 0001942  66.6799 293.4670 15.75199174  5501
STARLINK-36579          
1 67541U 26014K   26049.20383676  .00130889  00000+0  86382-3 0  9990
2 67541  97.2828 293.1383 0001547  96.0366 264.1075 15.75221965  5505
STARLINK-35934          
1 67542U 26014L   26049.25002315 -.01083123  00000+0 -78132-2 0  9998
2 67542  97.2843 293.2704 0001699 108.5887 344.8524 15.75959487  5553
STARLINK-36581          
1 67543U 26014M   26049.25002315 -.00128928  00000+0 -87444-3 0  9998
2 67543  97.2843 293.2509 0001424  95.2969 314.5317 15.75246818  5568
STARLINK-36565          
1 67544U 26014N   26049.18373099  .00262598  00000+0  17023-2 0  9996
2 67544  97.2841 293.1683 0002593  67.7003 292.4537 15.75264580  5508
STARLINK-36583          
1 67545U 26014P   26049.20771989  .00177890  00000+0  11663-2 0  9994
2 67545  97.2828 293.1328 0001582 100.9137 259.2307 15.75241080  5501
