CCSDS_OMM_VERS = 2.0
CREATION_DATE  = 
ORIGINATOR     = 

OBJECT_NAME    = STARLINK-36576
OBJECT_ID      = 2026-014C
CENTER_NAME    = EARTH
REF_FRAME      = TEME
TIME_SYSTEM    = UTC
MEAN_ELEMENT_THEORY = SGP/SGP4

EPOCH          = 2026-02-18T06:00:02.000160
MEAN_MOTION    = 15.75231809
ECCENTRICITY   = .00014614
INCLINATION    = 97.2835
RA_OF_ASC_NODE = 293.2298
ARG_OF_PERICENTER = 96.1195
MEAN_ANOMALY   = 257.7152

EPHEMERIS_TYPE = 0
CLASSIFICATION_TYPE = U
NORAD_CAT_ID   = 67534
ELEMENT_SET_NO = 999
REV_AT_EPOCH   = 556
BSTAR          = -.60716007E-3
MEAN_MOTION_DOT = -.89909E-3
MEAN_MOTION_DDOT = 0

CCSDS_OMM_VERS = 2.0
CREATION_DATE  = 
ORIGINATOR     = 

OBJECT_NAME    = STARLINK-36574
OBJECT_ID      = 2026-014D
CENTER_NAME    = EARTH
REF_FRAME      = TEME
TIME_SYSTEM    = UTC
MEAN_ELEMENT_THEORY = SGP/SGP4

EPOCH          = 2026-02-18T05:45:55.598976
MEAN_MOTION    = 15.78774987
ECCENTRICITY   = .00013149
INCLINATION    = 97.2827
RA_OF_ASC_NODE = 293.2465
ARG_OF_PERICENTER = 35.9834
MEAN_ANOMALY   = 324.1521

EPHEMERIS_TYPE = 0
CLASSIFICATION_TYPE = U
NORAD_CAT_ID   = 67535
ELEMENT_SET_NO = 999
REV_AT_EPOCH   = 551
BSTAR          = -.50895628E-2
MEAN_MOTION_DOT = -.810283E-2
MEAN_MOTION_DDOT = 0

CCSDS_OMM_VERS = 2.0
CREATION_DATE  = 
ORIGINATOR     = 

OBJECT_NAME    = STARLINK-36572
OBJECT_ID      = 2026-014E
CENTER_NAME    = EARTH
REF_FRAME      = TEME
TIME_SYSTEM    = UTC
MEAN_ELEMENT_THEORY = SGP/SGP4

EPOCH          = 2026-02-18T05:02:09.929760
MEAN_MOTION    = 15.75189833
ECCENTRICITY   = .00019981
INCLINATION    = 97.2827
RA_OF_ASC_NODE = 293.1322
ARG_OF_PERICENTER = 117.4322
MEAN_ANOMALY   = 242.7147

EPHEMERIS_TYPE = 0
CLASSIFICATION_TYPE = U
NORAD_CAT_ID   = 67536
ELEMENT_SET_NO = 999
REV_AT_EPOCH   = 550
BSTAR          = .13946068E-2
MEAN_MOTION_DOT = .213163E-2
MEAN_MOTION_DDOT = 0

CCSDS_OMM_VERS = 2.0
CREATION_DATE  = 
ORIGINATOR     = 

OBJECT_NAME    = STARLINK-36561
OBJECT_ID      = 2026-014F
CENTER_NAME    = EARTH
REF_FRAME      = TEME
TIME_SYSTEM    = UTC
MEAN_ELEMENT_THEORY = SGP/SGP4

EPOCH          = 2026-02-18T05:10:48.344448
MEAN_MOTION    = 15.75205254
ECCENTRICITY   = .00020673
INCLINATION    = 97.2847
RA_OF_ASC_NODE = 293.1224
ARG_OF_PERICENTER = 107.4844
MEAN_ANOMALY   = 252.6647

EPHEMERIS_TYPE = 0
CLASSIFICATION_TYPE = U
NORAD_CAT_ID   = 67537
ELEMENT_SET_NO = 999
REV_AT_EPOCH   = 550
BSTAR          = .2025518E-2
MEAN_MOTION_DOT = .31356E-2
MEAN_MOTION_DDOT = 0

CCSDS_OMM_VERS = 2.0
CREATION_DATE  = 
ORIGINATOR     = 

OBJECT_NAME    = STARLINK-36397
OBJECT_ID      = 2026-014G
CENTER_NAME    = EARTH
REF_FRAME      = TEME
TIME_SYSTEM    = UTC
MEAN_ELEMENT_THEORY = SGP/SGP4

EPOCH          = 2026-02-18T05:16:23.858976
MEAN_MOTION    = 15.75185212
ECCENTRICITY   = .00020864
INCLINATION    = 97.2847
RA_OF_ASC_NODE = 293.1178
ARG_OF_PERICENTER = 74.5418
MEAN_ANOMALY   = 285.6078

EPHEMERIS_TYPE = 0
CLASSIFICATION_TYPE = U
NORAD_CAT_ID   = 67538
ELEMENT_SET_NO = 999
REV_AT_EPOCH   = 550
BSTAR          = .13083748E-2
MEAN_MOTION_DOT = .199617E-2
MEAN_MOTION_DDOT = 0

CCSDS_OMM_VERS = 2.0
CREATION_DATE  = 
ORIGINATOR     = 

OBJECT_NAME    = STARLINK-36573
OBJECT_ID      = 2026-014H
CENTER_NAME    = EARTH
REF_FRAME      = TEME
TIME_SYSTEM    = UTC
MEAN_ELEMENT_THEORY = SGP/SGP4

EPOCH          = 2026-02-18T06:00:02.000160
MEAN_MOTION    = 15.75172437
ECCENTRICITY   = .00015509
INCLINATION    = 97.2840
RA_OF_ASC_NODE = 293.2466
ARG_OF_PERICENTER = 96.6004
MEAN_ANOMALY   = 301.3844

EPHEMERIS_TYPE = 0
CLASSIFICATION_TYPE = U
NORAD_CAT_ID   = 67539
ELEMENT_SET_NO = 999
REV_AT_EPOCH   = 556
BSTAR          = -.62753439E-3
MEAN_MOTION_DOT = -.92655E-3
MEAN_MOTION_DDOT = 0

CCSDS_OMM_VERS = 2.0
CREATION_DATE  = 
ORIGINATOR     = 

OBJECT_NAME    = STARLINK-36585
OBJECT_ID      = 2026-014J
CENTER_NAME    = EARTH
REF_FRAME      = TEME
TIME_SYSTEM    = UTC
MEAN_ELEMENT_THEORY = SGP/SGP4

EPOCH          = 2026-02-18T05:04:42.529440
MEAN_MOTION    = 15.75199174
ECCENTRICITY   = .00019425
INCLINATION    = 97.2840
RA_OF_ASC_NODE = 293.1265
ARG_OF_PERICENTER = 66.6799
MEAN_ANOMALY   = 293.4670

EPHEMERIS_TYPE = 0
CLASSIFICATION_TYPE = U
NORAD_CAT_ID   = 67540
ELEMENT_SET_NO = 999
REV_AT_EPOCH   = 550
BSTAR          = .15344705E-2
MEAN_MOTION_DOT = .235261E-2
MEAN_MOTION_DDOT = 0

CCSDS_OMM_VERS = 2.0
CREATION_DATE  = 
ORIGINATOR     = 

OBJECT_NAME    = STARLINK-36579
OBJECT_ID      = 2026-014K
CENTER_NAME    = EARTH
REF_FRAME      = TEME
TIME_SYSTEM    = UTC
MEAN_ELEMENT_THEORY = SGP/SGP4

EPOCH          = 2026-02-18T04:53:31.496064
MEAN_MOTION    = 15.75221965
ECCENTRICITY   = .00015472
INCLINATION    = 97.2828
RA_OF_ASC_NODE = 293.1383
ARG_OF_PERICENTER = 96.0366
MEAN_ANOMALY   = 264.1075

EPHEMERIS_TYPE = 0
CLASSIFICATION_TYPE = U
NORAD_CAT_ID   = 67541
ELEMENT_SET_NO = 999
REV_AT_EPOCH   = 550
BSTAR          = .86382257E-3
MEAN_MOTION_DOT = .130889E-2
MEAN_MOTION_DDOT = 0

CCSDS_OMM_VERS = 2.0
CREATION_DATE  = 
ORIGINATOR     = 

OBJECT_NAME    = STARLINK-35934
OBJECT_ID      = 2026-014L
CENTER_NAME    = EARTH
REF_FRAME      = TEME
TIME_SYSTEM    = UTC
MEAN_ELEMENT_THEORY = SGP/SGP4

EPOCH          = 2026-02-18T06:00:02.000160
MEAN_MOTION    = 15.75959487
ECCENTRICITY   = .00016998
INCLINATION    = 97.2843
RA_OF_ASC_NODE = 293.2704
ARG_OF_PERICENTER = 108.5887
MEAN_ANOMALY   = 344.8524

EPHEMERIS_TYPE = 0
CLASSIFICATION_TYPE = U
NORAD_CAT_ID   = 67542
ELEMENT_SET_NO = 999
REV_AT_EPOCH   = 555
BSTAR          = -.78132118E-2
MEAN_MOTION_DOT = -.1083123E-1
MEAN_MOTION_DDOT = 0

CCSDS_OMM_VERS = 2.0
CREATION_DATE  = 
ORIGINATOR     = 

OBJECT_NAME    = STARLINK-36581
OBJECT_ID      = 2026-014M
CENTER_NAME    = EARTH
REF_FRAME      = TEME
TIME_SYSTEM    = UTC
MEAN_ELEMENT_THEORY = SGP/SGP4

EPOCH          = 2026-02-18T06:00:02.000160
MEAN_MOTION    = 15.75246818
ECCENTRICITY   = .00014243
INCLINATION    = 97.2843
RA_OF_ASC_NODE = 293.2509
ARG_OF_PERICENTER = 95.2969
MEAN_ANOMALY   = 314.5317

EPHEMERIS_TYPE = 0
CLASSIFICATION_TYPE = U
NORAD_CAT_ID   = 67543
ELEMENT_SET_NO = 999
REV_AT_EPOCH   = 556
BSTAR          = -.87443692E-3
MEAN_MOTION_DOT = -.128928E-2
MEAN_MOTION_DDOT = 0

CCSDS_OMM_VERS = 2.0
CREATION_DATE  = 
ORIGINATOR     = 

OBJECT_NAME    = STARLINK-36565
OBJECT_ID      = 2026-014N
CENTER_NAME    = EARTH
REF_FRAME      = TEME
TIME_SYSTEM    = UTC
MEAN_ELEMENT_THEORY = SGP/SGP4

EPOCH          = 2026-02-18T04:24:34.357536
MEAN_MOTION    = 15.75264580
ECCENTRICITY   = .00025938
INCLINATION    = 97.2841
RA_OF_ASC_NODE = 293.1683
ARG_OF_PERICENTER = 67.7003
MEAN_ANOMALY   = 292.4537

EPHEMERIS_TYPE = 0
CLASSIFICATION_TYPE = U
NORAD_CAT_ID   = 67544
ELEMENT_SET_NO = 999
REV_AT_EPOCH   = 550
BSTAR          = .17022867E-2
MEAN_MOTION_DOT = .262598E-2
MEAN_MOTION_DDOT = 0

CCSDS_OMM_VERS = 2.0
CREATION_DATE  = 
ORIGINATOR     = 

OBJECT_NAME    = STARLINK-36583
OBJECT_ID      = 2026-014P
CENTER_NAME    = EARTH
REF_FRAME      = TEME
TIME_SYSTEM    = UTC
MEAN_ELEMENT_THEORY = SGP/SGP4

EPOCH          = 2026-02-18T04:59:06.998496
MEAN_MOTION    = 15.75241080
ECCENTRICITY   = .00015828
INCLINATION    = 97.2828
RA_OF_ASC_NODE = 293.1328
ARG_OF_PERICENTER = 100.9137
MEAN_ANOMALY   = 259.2307

EPHEMERIS_TYPE = 0
CLASSIFICATION_TYPE = U
NORAD_CAT_ID   = 67545
ELEMENT_SET_NO = 999
REV_AT_EPOCH   = 550
BSTAR          = .11662615E-2
MEAN_MOTION_DOT = .17789E-2
MEAN_MOTION_DDOT = 0

